[{"OBJECT_NAME":"METEOR-M2 3","OBJECT_ID":"2023-091A","EPOCH":"2026-03-09T22:59:41.369280","MEAN_MOTION":14.24037691,"ECCENTRICITY":0.000511,"INCLINATION":98.6213,"RA_OF_ASC_NODE":125.9119,"ARG_OF_PERICENTER":98.6128,"MEAN_ANOMALY":261.563,"EPHEMERIS_TYPE":0,"CLASSIFICATION_TYPE":"U","NORAD_CAT_ID":57166,"ELEMENT_SET_NO":999,"REV_AT_EPOCH":14039,"BSTAR":2.3891208e-5,"MEAN_MOTION_DOT":1.2e-7,"MEAN_MOTION_DDOT":0},{"OBJECT_NAME":"CZ-6A DEB","OBJECT_ID":"2022-151ABV","EPOCH":"2026-03-06T23:41:08.384640","MEAN_MOTION":14.20349743,"ECCENTRICITY":0.0029286,"INCLINATION":98.8188,"RA_OF_ASC_NODE":80.5392,"ARG_OF_PERICENTER":231.946,"MEAN_ANOMALY":127.9074,"EPHEMERIS_TYPE":0,"CLASSIFICATION_TYPE":"U","NORAD_CAT_ID":56253,"ELEMENT_SET_NO":999,"REV_AT_EPOCH":15929,"BSTAR":0.0011809662,"MEAN_MOTION_DOT":2.495e-5,"MEAN_MOTION_DDOT":0}]
